STARLINK-2450           
1 48113U 21027X   24198.65310806 -.00001238  00000+0 -64254-4 0  9992
2 48113  53.0562 349.7737 0001158  82.3553 277.7568 15.06391495181815
STARLINK-2452           
1 48115U 21027Z   24198.70931877  .00020434  00000+0  13874-2 0  9994
2 48115  53.0559 339.5330 0001148  75.4644 284.6472 15.06381555181976
STARLINK-2454           
1 48116U 21027AA  24199.44558349  .00018473  00000+0  12554-2 0  9990
2 48116  53.0563 346.2169 0001239  69.3318 290.7804 15.06412609181543
STARLINK-2455           
1 48117U 21027AB  24199.54967967  .00032828  00000+0  22105-2 0  9995
2 48117  53.0550 325.7402 0001252  61.6546 298.4569 15.06434058181843
STARLINK-2458           
1 48118U 21027AC  24199.49533902  .00031133  00000+0  20974-2 0  9998
2 48118  53.0552 325.9938 0001259  83.5887 276.5245 15.06441478181831
STARLINK-2459           
1 48119U 21027AD  24199.49070757  .00029841  00000+0  20119-2 0  9997
2 48119  53.0554 326.0054 0001223  64.4711 295.6404 15.06434641181833
STARLINK-2460           
1 48120U 21027AE  24198.70102217 -.00000001  00000+0  18826-4 0  9991
2 48120  53.0555 349.5592 0001417  98.9556 261.1593 15.06402769181841
STARLINK-2462           
1 48121U 21027AF  24199.53496297  .00029360  00000+0  19797-2 0  9992
2 48121  53.0559 335.8207 0001086  80.4139 279.6972 15.06438408181701
STARLINK-2463           
1 48122U 21027AG  24198.67107359  .00003467  00000+0  25150-3 0  9996
2 48122  53.0563 334.6654 0001272 103.6836 256.4295 15.06400768182046
STARLINK-2464           
1 48123U 21027AH  24199.54325379  .00031068  00000+0  20938-2 0  9994
2 48123  53.0553 325.7795 0001108  87.3626 272.7490 15.06429615181832
STARLINK-2465           
1 48124U 21027AJ  24198.67983083  .00006011  00000+0  42199-3 0  9994
2 48124  53.0553 339.6540 0001064  95.2045 264.9066 15.06405521181965
STARLINK-2466           
1 48125U 21027AK  24199.55618604  .00025023  00000+0  16912-2 0  9994
2 48125  53.0552 345.9617 0000950  86.8029 273.3068 15.06435678181569
STARLINK-2467           
1 48126U 21027AL  24198.64757970  .00020089  00000+0  13641-2 0  9997
2 48126  53.0562 329.7995 0001145 114.6461 245.4647 15.06388950182112
STARLINK-2468           
1 48127U 21027AM  24199.36818413  .00009234  00000+0  63772-3 0  9998
2 48127  53.0553 346.5623 0001269  65.8237 294.2885 15.06414720181539
STARLINK-2469           
1 48128U 21027AN  24199.21614721  .00018648  00000+0  12672-2 0  9990
2 48128  53.0540 277.3353 0001267  68.9325 291.1799 15.06409281182499
STARLINK-2471           
1 48129U 21027AP  24199.55983748  .00015884  00000+0  10821-2 0  9999
2 48129  53.0553 345.7023 0001419 119.2513 240.8618 15.06425805181564
STARLINK-2472           
1 48130U 21027AQ  24199.13741684  .00005822  00000+0  40935-3 0  9997
2 48130  53.0568 353.1529 0001051  86.3717 273.7393 15.06405756181421
STARLINK-2473           
1 48131U 21027AR  24199.50271669  .00003852  00000+0  27743-3 0  9993
2 48131  53.0559 325.9601 0000996  89.1433 270.9670 15.06385121181838
STARLINK-2474           
1 48132U 21027AS  24199.54878362  .00023183  00000+0  15688-2 0  9994
2 48132  53.0563 345.7542 0001248  91.7320 268.3812 15.06431091181560
STARLINK-2475           
1 48133U 21027AT  24199.41241255  .00020727  00000+0  14057-2 0  9996
2 48133  53.0553 346.3675 0001194  70.9554 289.1564 15.06416210181541
STARLINK-2476           
1 48134U 21027AU  24198.66784942 -.00000746  00000+0 -31218-4 0  9999
2 48134  53.0557 349.7091 0001238  82.0498 278.0631 15.06393428181823
STARLINK-2478           
1 48135U 21027AV  24199.13368271  .00015453  00000+0  10538-2 0  9995
2 48135  53.0557 352.7806 0001068  88.0623 272.0488 15.06407986181424
STARLINK-2479           
1 48136U 21027AW  24198.67528164 -.00000807  00000+0 -35329-4 0  9999
2 48136  53.0556 350.1778 0001187  75.9648 284.1473 15.06394026181820
STARLINK-2480           
1 48137U 21027AX  24199.51378267  .00005183  00000+0  36669-3 0  9998
2 48137  53.0567 325.8832 0001417 105.7796 254.3349 15.06388138181834
STARLINK-2481           
1 48138U 21027AY  24199.40872297  .00006699  00000+0  46812-3 0  9993
2 48138  53.0551 346.3814 0001375  86.8407 273.2740 15.06408000181541
STARLINK-2482           
1 48139U 21027AZ  24199.53220047  .00026763  00000+0  18072-2 0  9998
2 48139  53.0568 325.8310 0001174  69.4143 290.6972 15.06432304181841
STARLINK-2483           
1 48140U 21027BA  24198.69003748  .00017643  00000+0  12006-2 0  9991
2 48140  53.0554 350.1596 0001129  90.8320 269.2798 15.06393000181825
STARLINK-2484           
1 48141U 21027BB  24199.12491176  .00012521  00000+0  85807-3 0  9997
2 48141  53.0565 347.6566 0001274  77.0254 283.0877 15.06396968181503
STARLINK-2485           
1 48142U 21027BC  24199.52850820  .00022856  00000+0  15468-2 0  9994
2 48142  53.0570 325.8468 0001381  95.3167 264.7980 15.06436039181846
STARLINK-2486           
1 48143U 21027BD  24199.51977365  .00015159  00000+0  10338-2 0  9997
2 48143  53.0564 280.9856 0001383  70.1299 289.9839 15.06420571182466
STARLINK-2487           
1 48144U 21027BE  24199.53588660  .00029874  00000+0  20142-2 0  9999
2 48144  53.0554 325.8129 0001259  70.7368 289.3757 15.06432913181840
STARLINK-2488           
1 48145U 21027BF  24199.53957197  .00030207  00000+0  20363-2 0  9992
2 48145  53.0554 325.7939 0001270  66.6683 293.4440 15.06433211181843
STARLINK-2490           
1 48147U 21027BH  24198.91667824  .00296856  00000+0  14600-2 0  9991
2 48147  53.0470 300.0141 0011068 342.2907 293.1831 15.80744951  5902
STARLINK-2491           
1 48148U 21027BJ  24199.43820870  .00018130  00000+0  12324-2 0  9990
2 48148  53.0563 346.2497 0001010  90.8795 269.2310 15.06415525181540
STARLINK-2492           
1 48149U 21027BK  24199.51745571  .00024330  00000+0  16452-2 0  9999
2 48149  53.0564 325.8951 0001272  63.6514 296.4606 15.06431609181830
STARLINK-2493           
1 48150U 21027BL  24198.65863714  .00020950  00000+0  14218-2 0  9997
2 48150  53.0562 329.7511 0001200  65.1615 294.9498 15.06383171182119
STARLINK-2503           
1 48151U 21027BM  24199.52482765  .00029003  00000+0  19563-2 0  9994
2 48151  53.0560 325.8633 0001266  63.9317 296.1802 15.06431886181846
STARLINK-2567           
1 48276U 21036A   24199.43314082  .00001254  00000+0  10303-3 0  9990
2 48276  53.0543 221.2745 0001106  90.1082 270.0033 15.06406117178912
STARLINK-2569           
1 48277U 21036B   24199.23548425  .00001468  00000+0  11740-3 0  9992
2 48277  53.0527 187.1584 0001328  94.7846 265.3295 15.06404947179377
STARLINK-2543           
1 48278U 21036C   24199.20646477 -.00002818  00000+0 -17038-3 0  9994
2 48278  53.0526 202.3687 0001423  87.9232 272.1920 15.06389277179155
STARLINK-2580           
1 48279U 21036D   24199.19908693  .00000478  00000+0  50977-4 0  9992
2 48279  53.0540 202.3257 0001169  96.1781 263.9342 15.06401652179151
STARLINK-2565           
1 48280U 21036E   24198.52916729  .00001029  00000+0  87955-4 0  9998
2 48280  53.0545 275.3324 0001304  86.4981 273.6157 15.06392411178072
STARLINK-2520           
1 48281U 21036F   24199.13919469  .00000765  00000+0  70231-4 0  9996
2 48281  53.0553 252.5972 0001379  92.0280 268.0867 15.06403118178449
STARLINK-2558           
1 48282U 21036G   24199.16269361  .00002406  00000+0  18035-3 0  9996
2 48282  53.0532 257.4850 0001115  84.0852 276.0264 15.06400061178387
STARLINK-2516           
1 48283U 21036H   24198.49553613  .00002386  00000+0  17901-3 0  9996
2 48283  53.0539 260.4826 0001046  82.9834 277.1274 15.06398583177705
STARLINK-2564           
1 48284U 21036J   24198.49185021  .00004301  00000+0  30745-3 0  9991
2 48284  53.0535 260.4992 0000994  87.8302 272.2800 15.06398146177695
STARLINK-2547           
1 48286U 21036L   24199.43916715  .00002477  00000+0  18506-3 0  9993
2 48286  53.0546 256.5178 0001190  84.0636 276.0488 15.06406983178413
STARLINK-2566           
1 48287U 21036M   24199.14426239  .00000937  00000+0  81760-4 0  9991
2 48287  53.0547 257.5727 0001112  93.7702 266.3414 15.06400538178377
STARLINK-2562           
1 48288U 21036N   24199.14795459  .00001683  00000+0  13180-3 0  9994
2 48288  53.0552 257.6361 0001198  98.9010 261.2114 15.06406896178376
STARLINK-2545           
1 48289U 21036P   24199.46862035  .00009841  00000+0  67841-3 0  9992
2 48289  53.0545 256.1164 0001392 104.4728 255.6416 15.06412765178429
STARLINK-2540           
1 48290U 21036Q   24199.46493473  .00007018  00000+0  48942-3 0  9995
2 48290  53.0550 256.1355 0001453 109.3448 250.7698 15.06408524178426
STARLINK-2555           
1 48291U 21036R   24199.46124846  .00007387  00000+0  51416-3 0  9990
2 48291  53.0540 256.1498 0001220 103.2989 256.8136 15.06408176178426
STARLINK-2542           
1 48292U 21036S   24199.47232458  .00004685  00000+0  33307-3 0  9998
2 48292  53.0541 256.2633 0001219  96.9942 263.1185 15.06412393178426
STARLINK-2550           
1 48293U 21036T   24199.45388017  .00006732  00000+0  47009-3 0  9999
2 48293  53.0545 256.1835 0001349  76.9709 283.1430 15.06422846178426
STARLINK-2533           
1 48294U 21036U   24199.45018525  .00001967  00000+0  15084-3 0  9997
2 48294  53.0546 256.1995 0001161 100.0070 260.1050 15.06410882178427
STARLINK-2535           
1 48295U 21036V   24199.18111584  .00000334  00000+0  41318-4 0  9994
2 48295  53.0555 257.4076 0001464  94.4502 265.6654 15.06409370178389
STARLINK-2546           
1 48296U 21036W   24199.17743558  .00002116  00000+0  16089-3 0  9992
2 48296  53.0554 257.4226 0001289  91.4664 268.6473 15.06402590178386
STARLINK-2559           
1 48298U 21036Y   24199.43545209  .00003117  00000+0  22805-3 0  9991
2 48298  53.0548 256.2658 0001263  83.3695 276.7438 15.06404313178424
STARLINK-2557           
1 48299U 21036Z   24199.16637517  .00001691  00000+0  13234-3 0  9997
2 48299  53.0553 257.4713 0001492  92.6392 267.4768 15.06408283178385
STARLINK-2538           
1 48300U 21036AA  24199.48981124  .00013879  00000+0  94824-3 0  9996
2 48300  53.0549 266.0225 0001202 106.8752 253.2369 15.06421522178295
